{"type": "FeatureCollection", "features": [{"type": "Feature", "properties": {"name": "Atalaia e Alto Estanqueiro-Jardia", "osm_id": "relation/6444914"}, "geometry": {"type": "Polygon", "coordinates": [[[-8.95131, 38.6889], [-8.95114, 38.68885], [-8.95085, 38.68875], [-8.9503, 38.68834], [-8.94998, 38.68815], [-8.94983, 38.68802], [-8.94976, 38.68772], [-8.94965, 38.68725], [-8.94915, 38.68562], [-8.94902, 38.6853], [-8.94899, 38.68521], [-8.94909, 38.68501], [-8.94928, 38.68475], [-8.94929, 38.68453], [-8.94922, 38.68415], [-8.94891, 38.68329], [-8.94861, 38.68279], [-8.94849, 38.68241], [-8.94848, 38.68226], [-8.94864, 38.6816], [-8.94863, 38.68154], [-8.94854, 38.6814], [-8.94812, 38.68094], [-8.94786, 38.68093], [-8.94781, 38.6809], [-8.94762, 38.68039], [-8.94752, 38.68025], [-8.94744, 38.68027], [-8.9473, 38.68005], [-8.94697, 38.6795], [-8.94638, 38.6784], [-8.94623, 38.67793], [-8.94612, 38.67735], [-8.94602, 38.67709], [-8.9458, 38.67664], [-8.94575, 38.67583], [-8.94564, 38.67555], [-8.94546, 38.67487], [-8.94516, 38.67411], [-8.94473, 38.67203], [-8.94466, 38.67184], [-8.94456, 38.67166], [-8.94293, 38.67023], [-8.94267, 38.6701], [-8.94219, 38.66997], [-8.94251, 38.6693], [-8.94297, 38.66901], [-8.94335, 38.66864], [-8.94348, 38.66864], [-8.94366, 38.66839], [-8.94418, 38.66777], [-8.94441, 38.66732], [-8.94427, 38.66448], [-8.94401, 38.66448], [-8.94368, 38.66293], [-8.94344, 38.66137], [-8.94345, 38.6613], [-8.94357, 38.66115], [-8.94357, 38.66101], [-8.94343, 38.66062], [-8.94348, 38.66044], [-8.94357, 38.66035], [-8.94337, 38.66038], [-8.94195, 38.66052], [-8.94129, 38.66046], [-8.94008, 38.66023], [-8.93893, 38.65983], [-8.93566, 38.65881], [-8.93471, 38.65841], [-8.93238, 38.65752], [-8.93192, 38.65721], [-8.93178, 38.65714], [-8.93074, 38.65692], [-8.93011, 38.65705], [-8.92961, 38.65708], [-8.92896, 38.65707], [-8.92509, 38.65661], [-8.92302, 38.65654], [-8.92272, 38.65658], [-8.92244, 38.65667], [-8.92127, 38.65709], [-8.9205, 38.65743], [-8.92004, 38.65761], [-8.91906, 38.65819], [-8.9188, 38.65842], [-8.91802, 38.65892], [-8.91715, 38.65922], [-8.91613, 38.6595], [-8.9143, 38.65987], [-8.91404, 38.65991], [-8.91383, 38.65992], [-8.91282, 38.65967], [-8.91201, 38.65962], [-8.91036, 38.65978], [-8.9112, 38.66403], [-8.91131, 38.66451], [-8.91177, 38.66603], [-8.9119, 38.66652], [-8.91216, 38.66803], [-8.91258, 38.67153], [-8.91206, 38.6714], [-8.91139, 38.67136], [-8.91128, 38.67137], [-8.91131, 38.6719], [-8.91157, 38.67577], [-8.91163, 38.67606], [-8.91161, 38.67634], [-8.91173, 38.67905], [-8.91188, 38.68075], [-8.91202, 38.68156], [-8.91225, 38.68244], [-8.91236, 38.68274], [-8.91302, 38.68425], [-8.91399, 38.68613], [-8.91426, 38.68693], [-8.91455, 38.68776], [-8.91486, 38.68884], [-8.91491, 38.68903], [-8.91493, 38.68908], [-8.91506, 38.69012], [-8.91523, 38.69082], [-8.91582, 38.69282], [-8.91666, 38.69547], [-8.91694, 38.6964], [-8.91716, 38.69714], [-8.91736, 38.6978], [-8.91738, 38.69786], [-8.91852, 38.70163], [-8.91876, 38.7022], [-8.91894, 38.70283], [-8.91879, 38.70554], [-8.9193, 38.70568], [-8.91927, 38.70611], [-8.92005, 38.706], [-8.92034, 38.70599], [-8.92075, 38.70604], [-8.92067, 38.70719], [-8.92065, 38.70779], [-8.92066, 38.70806], [-8.9208, 38.70844], [-8.92081, 38.70856], [-8.92068, 38.70896], [-8.92144, 38.70992], [-8.92189, 38.70965], [-8.92228, 38.70936], [-8.92305, 38.70869], [-8.92929, 38.71539], [-8.92989, 38.71606], [-8.93127, 38.71451], [-8.93136, 38.71438], [-8.93182, 38.71326], [-8.93298, 38.71193], [-8.93386, 38.71042], [-8.93457, 38.70952], [-8.93466, 38.70935], [-8.93483, 38.70885], [-8.93502, 38.70815], [-8.935, 38.70781], [-8.93486, 38.70695], [-8.93468, 38.70618], [-8.93441, 38.70619], [-8.93433, 38.70613], [-8.93435, 38.70598], [-8.93459, 38.70575], [-8.93478, 38.7055], [-8.93502, 38.70511], [-8.93496, 38.70402], [-8.93527, 38.70314], [-8.93482, 38.70307], [-8.9333, 38.70263], [-8.93212, 38.70223], [-8.93206, 38.70218], [-8.93206, 38.70208], [-8.93218, 38.7019], [-8.93292, 38.7004], [-8.93342, 38.69929], [-8.93431, 38.69754], [-8.93446, 38.69725], [-8.9345, 38.69708], [-8.93452, 38.69607], [-8.93452, 38.69598], [-8.93439, 38.69568], [-8.93405, 38.69497], [-8.93381, 38.69447], [-8.93351, 38.69363], [-8.93317, 38.6928], [-8.93353, 38.69274], [-8.93392, 38.69261], [-8.93497, 38.69202], [-8.93617, 38.69126], [-8.93696, 38.69058], [-8.93712, 38.6905], [-8.93812, 38.69019], [-8.93875, 38.69008], [-8.93952, 38.69002], [-8.93989, 38.68995], [-8.94164, 38.68957], [-8.9434, 38.68927], [-8.94473, 38.68898], [-8.94514, 38.68883], [-8.94576, 38.68848], [-8.94586, 38.68839], [-8.94596, 38.68823], [-8.94799, 38.68764], [-8.94803, 38.68763], [-8.94825, 38.68759], [-8.94839, 38.6876], [-8.94841, 38.6876], [-8.94862, 38.68762], [-8.94865, 38.68763], [-8.94886, 38.68774], [-8.94901, 38.68787], [-8.94919, 38.68812], [-8.94937, 38.68851], [-8.9496, 38.68882], [-8.95009, 38.68933], [-8.95044, 38.68918], [-8.9508, 38.68919], [-8.95102, 38.68916], [-8.95121, 38.68905], [-8.95131, 38.6889]]]}}]}